{
    "links": {
        "self": "http://www.neowsapp.com/rest/v1/neo/3467179?api_key=iIulBulltgU6a56xZRHN4H3l9WmuAYTsLGpBGhQ2"
    },
    "id": "3467179",
    "neo_reference_id": "3467179",
    "name": "(2009 SD)",
    "designation": "2009 SD",
    "nasa_jpl_url": "http://ssd.jpl.nasa.gov/sbdb.cgi?sstr=3467179",
    "absolute_magnitude_h": 25.4,
    "estimated_diameter": {
        "kilometers": {
            "estimated_diameter_min": 0.022108281,
            "estimated_diameter_max": 0.0494356193
        },
        "meters": {
            "estimated_diameter_min": 22.1082810359,
            "estimated_diameter_max": 49.435619262
        },
        "miles": {
            "estimated_diameter_min": 0.0137374447,
            "estimated_diameter_max": 0.0307178602
        },
        "feet": {
            "estimated_diameter_min": 72.5337327539,
            "estimated_diameter_max": 162.1903570994
        }
    },
    "is_potentially_hazardous_asteroid": false,
    "close_approach_data": [
        {
            "close_approach_date": "2009-09-06",
            "close_approach_date_full": "2009-Sep-06 04:22",
            "epoch_date_close_approach": 1252210920000,
            "relative_velocity": {
                "kilometers_per_second": "15.4021443203",
                "kilometers_per_hour": "55447.7195529331",
                "miles_per_hour": "34453.0566299878"
            },
            "miss_distance": {
                "astronomical": "0.0074740125",
                "lunar": "2.9073908625",
                "kilometers": "1118096.350353375",
                "miles": "694752.855991575"
            },
            "orbiting_body": "Earth"
        },
        {
            "close_approach_date": "2009-09-06",
            "close_approach_date_full": "2009-Sep-06 12:29",
            "epoch_date_close_approach": 1252240140000,
            "relative_velocity": {
                "kilometers_per_second": "15.667865977",
                "kilometers_per_hour": "56404.3175171114",
                "miles_per_hour": "35047.4494038963"
            },
            "miss_distance": {
                "astronomical": "0.0069553673",
                "lunar": "2.7056378797",
                "kilometers": "1040508.133147651",
                "miles": "646541.7733975438"
            },
            "orbiting_body": "Moon"
        }
    ],
    "orbital_data": {
        "orbit_id": "9",
        "orbit_determination_date": "2017-04-06 09:00:04",
        "first_observation_date": "2009-09-16",
        "last_observation_date": "2009-09-19",
        "data_arc_in_days": 3,
        "observations_used": 24,
        "orbit_uncertainty": "8",
        "minimum_orbit_intersection": ".000166489",
        "jupiter_tisserand_invariant": "3.947",
        "epoch_osculation": "2455092.5",
        "eccentricity": ".5673469003474417",
        "semi_major_axis": "1.736110661478033",
        "inclination": "3.050224733116194",
        "ascending_node_longitude": "344.3256443237648",
        "orbital_period": "835.5347808774161",
        "perihelion_distance": ".7511336590283242",
        "perihelion_argument": "287.0566114305036",
        "aphelion_distance": "2.721087663927741",
        "perihelion_time": "2455033.382761935246",
        "mean_anomaly": "25.47135821319426",
        "mean_motion": ".4308617764803938",
        "equinox": "J2000",
        "orbit_class": {
            "orbit_class_type": "APO",
            "orbit_class_description": "Near-Earth asteroid orbits which cross the Earth’s orbit similar to that of 1862 Apollo",
            "orbit_class_range": "a (semi-major axis) > 1.0 AU; q (perihelion) < 1.017 AU"
        }
    },
    "is_sentry_object": false
}